OBJECT_NAME,OBJECT_ID,EPOCH,MEAN_MOTION,ECCENTRICITY,INCLINATION,RA_OF_ASC_NODE,ARG_OF_PERICENTER,MEAN_ANOMALY,EPHEMERIS_TYPE,CLASSIFICATION_TYPE,NORAD_CAT_ID,ELEMENT_SET_NO,REV_AT_EPOCH,BSTAR,MEAN_MOTION_DOT,MEAN_MOTION_DDOT
HORIZONS-3E,2018-074B,2026-06-03T17:49:57.845568,1.00271837,.00006896,0.0147,152.8945,126.1807,49.6128,0,U,43633,999,2820,0,-.18E-6,0
AEHF-4 (USA 288),2018-079A,2026-06-04T04:06:38.846016,1.00278756,.0060788,1.4285,2.8477,357.2747,246.4753,0,U,43651,999,2816,0,-.263E-5,0
BEIDOU-3 G1,2018-085A,2026-06-04T04:03:24.018336,1.00272093,.0008549,2.8355,97.7357,345.5119,30.2041,0,U,43683,999,2793,0,-.97E-6,0
GSAT-29,2018-089A,2026-06-04T03:33:26.888832,1.00270599,.0003803,0.0386,109.5679,321.0569,290.3764,0,U,43698,999,2765,0,.97E-6,0
ES'HAIL 2,2018-090A,2026-06-04T03:25:05.190816,1.00272521,.0001966,0.0174,355.2878,110.3925,223.9723,0,U,43700,999,2754,0,.156E-5,0
GEO-KOMPSAT-2A,2018-100A,2026-06-03T17:38:21.458976,1.00270341,.0002341,0.0517,140.6437,302.9772,201.4258,0,U,43823,999,2749,0,-.332E-5,0
GSAT-11,2018-100B,2026-06-04T01:56:07.008288,1.00271923,.0008058,0.0597,258.3132,186.0344,271.2239,0,U,43824,999,2734,0,-.65E-6,0
GSAT-7A,2018-105A,2026-06-04T01:18:21.715200,1.00273471,.000273,0.0270,259.0815,153.1294,282.7164,0,U,43864,999,2731,0,.38E-6,0
COSMOS 2533,2018-107A,2026-06-04T03:37:41.483712,1.00272829,.0000841,0.0437,94.2704,350.6939,292.0555,0,U,43867,999,2731,0,-.27E-6,0
TJS-3,2018-110A,2026-06-03T16:01:22.374912,1.00274849,.0001866,2.5099,80.6531,66.8699,133.1554,0,U,43874,999,2728,0,-.204E-5,0
ZHONGXING-2D,2019-001A,2026-06-04T00:29:29.561856,1.00271577,.0000939,0.0412,77.2704,292.3663,20.2388,0,U,43920,999,5394,0,-.325E-5,0
HELLAS-SAT 4 & SGS-1,2019-007A,2026-06-04T03:28:49.833408,1.00269430,.0004864,0.0687,129.3348,6.9672,207.5244,0,U,44034,999,2723,0,.165E-5,0
GSAT-31,2019-007B,2026-06-04T03:31:19.593120,1.00272420,.0000975,0.0745,95.3895,275.4734,342.4415,0,U,44035,999,2683,0,.137E-5,0
NUSANTARA SATU,2019-009A,2026-06-03T20:04:38.582688,1.00270746,.00044135,0.0457,144.7788,327.7787,226.9153,0,U,44048,999,2663,0,-.222E-5,0
ZHONGXING-6C,2019-012A,2026-06-04T00:29:37.050144,1.00271077,.0013439,0.1315,80.4932,329.7828,340.0381,0,U,44067,999,2660,0,-.323E-5,0
WGS 10 (USA 291),2019-014A,2026-06-04T03:34:56.747424,1.00269793,.0000573,0.0174,357.7902,18.4333,350.4226,0,U,44071,999,2648,0,.59E-6,0
TIANLIAN 2-01,2019-017A,2026-06-04T01:56:59.422848,1.00271760,.0001031,0.5059,83.1240,355.2450,280.4368,0,U,44076,999,2651,0,-.95E-6,0
ARABSAT-6A,2019-021A,2026-06-04T03:26:27.560256,1.00272544,.000102,0.0515,6.7781,36.3536,291.5690,0,U,44186,999,2602,0,.165E-5,0
BEIDOU-3 IGSO-1,2019-023A,2026-05-21T14:49:38.550720,1.00299087,.0025546,58.6591,37.9235,227.4594,312.4431,0,U,44204,999,694,0,-.234E-5,0
BEIDOU-2 G8,2019-027A,2026-06-04T03:59:01.936896,1.00276022,.0010765,1.6255,74.4913,284.2571,98.0941,0,U,44231,999,2595,0,-.235E-5,0
YAMAL 601,2019-031A,2026-06-04T05:29:38.603328,1.00273643,.0002653,0.0182,2.4347,78.2784,303.3804,0,U,44307,999,2579,0,.132E-5,0
AT&T T-16,2019-034A,2026-06-03T23:23:40.084800,1.00273791,.0000384,0.0267,66.2986,203.9799,232.2098,0,U,44333,999,2550,0,-.104E-5,0
EUTELSAT 7C,2019-034B,2026-06-04T03:19:43.204800,1.00271511,.0003327,0.0745,174.2918,244.4115,250.8166,0,U,44334,999,670,0,.6E-6,0
BEIDOU-3 IGSO-2,2019-035A,2026-06-03T14:39:33.810336,1.00271103,.0039672,55.2443,158.9810,216.0015,216.9100,0,U,44337,999,2553,0,-.71E-6,0
COSMOS 2539,2019-048A,2026-06-02T17:45:19.107936,1.00274138,.00006458,0.0385,92.0927,1.2529,76.1965,0,U,44457,999,2508,0,.94E-6,0
EDRS-C,2019-049A,2026-06-03T22:50:08.450016,1.00271560,.0001302,0.0051,331.6032,128.6151,277.2283,0,U,44475,999,2507,0,-.25E-5,0
INTELSAT 39 (IS-39),2019-049B,2026-06-04T01:52:44.831424,1.00271390,.0000599,0.0182,326.4973,4.9463,11.2279,0,U,44476,999,2499,0,.45E-6,0
AMOS-17,2019-050A,2026-06-04T03:22:35.431104,1.00273493,.000181,0.0244,309.2670,152.2451,218.7233,0,U,44479,999,2505,0,.121E-5,0
AEHF-5 (USA 292),2019-051A,2026-06-04T04:12:21.631104,1.00269647,.0067171,1.4653,335.1758,1.3629,72.2485,0,U,44481,999,2513,0,-.246E-5,0
EUTELSAT 5 WEST B,2019-067A,2026-06-04T03:16:21.028800,1.00272085,.0003381,0.0658,337.5387,96.1475,222.9953,0,U,44624,999,2430,0,-.3E-6,0
TJS-4,2019-070A,2026-06-04T05:05:38.687712,1.00271451,.0005179,0.0234,276.0132,122.9137,13.6854,0,U,44637,999,2440,0,-.158E-5,0
BEIDOU-3 IGSO-3,2019-073A,2026-05-16T19:27:04.075776,1.00246251,.0042953,54.8566,281.2355,189.4588,170.3676,0,U,44709,999,2414,0,-.217E-5,0
