HORIZONS-3E             
1 43633U 18074B   26154.74303062 -.00000018  00000+0  00000+0 0  9990
2 43633   0.0147 152.8945 0000689 126.1807  49.6128  1.00271837 28206
AEHF-4 (USA 288)        
1 43651U 18079A   26155.17128294 -.00000263  00000+0  00000+0 0  9997
2 43651   1.4285   2.8477 0060788 357.2747 246.4753  1.00278756 28167
BEIDOU-3 G1             
1 43683U 18085A   26155.16902799 -.00000097  00000+0  00000+0 0  9993
2 43683   2.8355  97.7357 0008549 345.5119  30.2041  1.00272093 27936
GSAT-29                 
1 43698U 18089A   26155.14822788  .00000097  00000+0  00000+0 0  9999
2 43698   0.0386 109.5679 0003803 321.0569 290.3764  1.00270599 27650
ES'HAIL 2               
1 43700U 18090A   26155.14242119  .00000156  00000+0  00000+0 0  9995
2 43700   0.0174 355.2878 0001966 110.3925 223.9723  1.00272521 27545
GEO-KOMPSAT-2A          
1 43823U 18100A   26154.73497059 -.00000332  00000+0  00000+0 0  9999
2 43823   0.0517 140.6437 0002341 302.9772 201.4258  1.00270341 27492
GSAT-11                 
1 43824U 18100B   26155.08063667 -.00000065  00000+0  00000+0 0  9996
2 43824   0.0597 258.3132 0008058 186.0344 271.2239  1.00271923 27342
GSAT-7A                 
1 43864U 18105A   26155.05441800  .00000038  00000+0  00000+0 0  9990
2 43864   0.0270 259.0815 0002730 153.1294 282.7164  1.00273471 27311
COSMOS 2533             
1 43867U 18107A   26155.15117458 -.00000027  00000+0  00000+0 0  9994
2 43867   0.0437  94.2704 0000841 350.6939 292.0555  1.00272829 27310
TJS-3                   
1 43874U 18110A   26154.66762008 -.00000204  00000+0  00000+0 0  9995
2 43874   2.5099  80.6531 0001866  66.8699 133.1554  1.00274849 27287
ZHONGXING-2D            
1 43920U 19001A   26155.02048104 -.00000325  00000+0  00000+0 0  9996
2 43920   0.0412  77.2704 0000939 292.3663  20.2388  1.00271577 53940
HELLAS-SAT 4 & SGS-1    
1 44034U 19007A   26155.14502122  .00000165  00000+0  00000+0 0  9998
2 44034   0.0687 129.3348 0004864   6.9672 207.5244  1.00269430 27233
GSAT-31                 
1 44035U 19007B   26155.14675455  .00000137  00000+0  00000+0 0  9998
2 44035   0.0745  95.3895 0000975 275.4734 342.4415  1.00272420 26836
NUSANTARA SATU          
1 44048U 19009A   26154.83655767 -.00000222  00000+0  00000+0 0  9999
2 44048   0.0457 144.7788 0004413 327.7787 226.9153  1.00270746 26632
ZHONGXING-6C            
1 44067U 19012A   26155.02056771 -.00000323  00000+0  00000+0 0  9998
2 44067   0.1315  80.4932 0013439 329.7828 340.0381  1.00271077 26606
WGS 10 (USA 291)        
1 44071U 19014A   26155.14926791  .00000059  00000+0  00000+0 0  9991
2 44071   0.0174 357.7902 0000573  18.4333 350.4226  1.00269793 26489
TIANLIAN 2-01           
1 44076U 19017A   26155.08124332 -.00000095  00000+0  00000+0 0  9994
2 44076   0.5059  83.1240 0001031 355.2450 280.4368  1.00271760 26518
ARABSAT-6A              
1 44186U 19021A   26155.14337454  .00000165  00000+0  00000+0 0  9996
2 44186   0.0515   6.7781 0001020  36.3536 291.5690  1.00272544 26021
BEIDOU-3 IGSO-1         
1 44204U 19023A   26141.61780730 -.00000234  00000+0  00000+0 0  9993
2 44204  58.6591  37.9235 0025546 227.4594 312.4431  1.00299087  6947
BEIDOU-2 G8             
1 44231U 19027A   26155.16599464 -.00000235  00000+0  00000+0 0  9995
2 44231   1.6255  74.4913 0010765 284.2571  98.0941  1.00276022 25953
YAMAL 601               
1 44307U 19031A   26155.22891902  .00000132  00000+0  00000+0 0  9998
2 44307   0.0182   2.4347 0002653  78.2784 303.3804  1.00273643 25793
AT&T T-16               
1 44333U 19034A   26154.97476950 -.00000104  00000+0  00000+0 0  9993
2 44333   0.0267  66.2986 0000384 203.9799 232.2098  1.00273791 25503
EUTELSAT 7C             
1 44334U 19034B   26155.13869450  .00000060  00000+0  00000+0 0  9994
2 44334   0.0745 174.2918 0003327 244.4115 250.8166  1.00271511  6703
BEIDOU-3 IGSO-2         
1 44337U 19035A   26154.61080799 -.00000071  00000+0  00000+0 0  9994
2 44337  55.2443 158.9810 0039672 216.0015 216.9100  1.00271103 25539
COSMOS 2539             
1 44457U 19048A   26153.73980449  .00000094  00000+0  00000+0 0  9998
2 44457   0.0385  92.0927 0000645   1.2529  76.1965  1.00274138 25080
EDRS-C                  
1 44475U 19049A   26154.95148669 -.00000250  00000+0  00000+0 0  9999
2 44475   0.0051 331.6032 0001302 128.6151 277.2283  1.00271560 25077
INTELSAT 39 (IS-39)     
1 44476U 19049B   26155.07829666  .00000045  00000+0  00000+0 0  9998
2 44476   0.0182 326.4973 0000599   4.9463  11.2279  1.00271390 24990
AMOS-17                 
1 44479U 19050A   26155.14068786  .00000121  00000+0  00000+0 0  9994
2 44479   0.0244 309.2670 0001810 152.2451 218.7233  1.00273493 25054
AEHF-5 (USA 292)        
1 44481U 19051A   26155.17525036 -.00000246  00000+0  00000+0 0  9996
2 44481   1.4653 335.1758 0067171   1.3629  72.2485  1.00269647 25131
EUTELSAT 5 WEST B       
1 44624U 19067A   26155.13635450 -.00000030  00000+0  00000+0 0  9991
2 44624   0.0658 337.5387 0003381  96.1475 222.9953  1.00272085 24300
TJS-4                   
1 44637U 19070A   26155.21225333 -.00000158  00000+0  00000+0 0  9994
2 44637   0.0234 276.0132 0005179 122.9137  13.6854  1.00271451 24401
BEIDOU-3 IGSO-3         
1 44709U 19073A   26136.81046384 -.00000217  00000+0  00000+0 0  9995
2 44709  54.8566 281.2355 0042953 189.4588 170.3676  1.00246251 24144
